{"type": "FeatureCollection", "features": [ {"type": "Feature", "properties": {"norad_id": 39019, "name": "PLEIADES 1B", "group": "resource", "lat": 23.224393640065628, "lon": 65.93565927847534, "alt_km": 696.9484112966547, "timestamp": "2025-12-22T23:36:20.356619+00:00", "meta": {"OBJECT_NAME": "PLEIADES 1B", "OBJECT_ID": "2012-068A", "EPOCH": "2025-12-22T15:15:58.290048", "MEAN_MOTION": 14.58561349, "ECCENTRICITY": 0.00011764, "INCLINATION": 98.1788, "RA_OF_ASC_NODE": 69.1319, "ARG_OF_PERICENTER": 84.0213, "MEAN_ANOMALY": 276.112, "EPHEMERIS_TYPE": 0, "CLASSIFICATION_TYPE": "U", "NORAD_CAT_ID": 39019, "ELEMENT_SET_NO": 999, "REV_AT_EPOCH": 69511, "BSTAR": 0.0001028315, "MEAN_MOTION_DOT": 4.33e-06, "MEAN_MOTION_DDOT": 0}, "tle": {"line1": "1 39019U 12068A   25356.63609132  .00000433  00000+0  10283-3 0  9996", "line2": "2 39019  98.1788  69.1319 0001176  84.0213 276.1120 14.58561349695114"}}, "geometry": {"type": "Point", "coordinates": [65.93565927847534, 23.224393640065628]}}, {"type": "Feature", "properties": {"norad_id": 39030, "name": "GOKTURK 2", "group": "resource", "lat": 44.38416222598115, "lon": 25.73057890398619, "alt_km": 639.6052568885107, "timestamp": "2025-12-22T23:36:20.356629+00:00", "meta": {"OBJECT_NAME": "GOKTURK 2", "OBJECT_ID": "2012-073A", "EPOCH": "2025-12-22T13:13:44.835168", "MEAN_MOTION": 14.7530404, "ECCENTRICITY": 0.00013526, "INCLINATION": 97.6884, "RA_OF_ASC_NODE": 197.722, "ARG_OF_PERICENTER": 108.124, "MEAN_ANOMALY": 252.0118, "EPHEMERIS_TYPE": 0, "CLASSIFICATION_TYPE": "U", "NORAD_CAT_ID": 39030, "ELEMENT_SET_NO": 999, "REV_AT_EPOCH": 69846, "BSTAR": 9.3181315e-05, "MEAN_MOTION_DOT": 5.84e-06, "MEAN_MOTION_DDOT": 0}, "tle": {"line1": "1 39030U 12073A   25356.55121337  .00000584  00000+0  93181-4 0  9998", "line2": "2 39030  97.6884 197.7220 0001352 108.1240 252.0118 14.75304040698464"}}, "geometry": {"type": "Point", "coordinates": [25.73057890398619, 44.38416222598115]}}, {"type": "Feature", "properties": {"norad_id": 39084, "name": "LANDSAT 8", "group": "resource", "lat": 38.96027992135232, "lon": -108.39384856441147, "alt_km": 699.078982102259, "timestamp": "2025-12-22T23:36:20.356639+00:00", "meta": {"OBJECT_NAME": "LANDSAT 8", "OBJECT_ID": "2013-008A", "EPOCH": "2025-12-22T11:25:36.296256", "MEAN_MOTION": 14.57112059, "ECCENTRICITY": 0.00010673, "INCLINATION": 98.2059, "RA_OF_ASC_NODE": 64.4053, "ARG_OF_PERICENTER": 91.8102, "MEAN_ANOMALY": 268.3219, "EPHEMERIS_TYPE": 0, "CLASSIFICATION_TYPE": "U", "NORAD_CAT_ID": 39084, "ELEMENT_SET_NO": 999, "REV_AT_EPOCH": 67216, "BSTAR": 9.8100197e-05, "MEAN_MOTION_DOT": 3.97e-06, "MEAN_MOTION_DDOT": 0}, "tle": {"line1": "1 39084U 13008A   25356.47611454  .00000397  00000+0  98100-4 0  9999", "line2": "2 39084  98.2059  64.4053 0001067  91.8102 268.3219 14.57112059672164"}}, "geometry": {"type": "Point", "coordinates": [-108.39384856441147, 38.96027992135232]}}, {"type": "Feature", "properties": {"norad_id": 39086, "name": "SARAL", "group": "resource", "lat": -49.80768197896368, "lon": -168.96217375857893, "alt_km": 790.993867782051, "timestamp": "2025-12-22T23:36:20.356649+00:00", "meta": {"OBJECT_NAME": "SARAL", "OBJECT_ID": "2013-009A", "EPOCH": "2025-12-22T13:47:06.229824", "MEAN_MOTION": 14.32760302, "ECCENTRICITY": 0.00029633, "INCLINATION": 98.5503, "RA_OF_ASC_NODE": 180.3764, "ARG_OF_PERICENTER": 90.187, "MEAN_ANOMALY": 269.9653, "EPHEMERIS_TYPE": 0, "CLASSIFICATION_TYPE": "U", "NORAD_CAT_ID": 39086, "ELEMENT_SET_NO": 999, "REV_AT_EPOCH": 67031, "BSTAR": 5.6655884e-05, "MEAN_MOTION_DOT": 1.11e-06, "MEAN_MOTION_DDOT": 0}, "tle": {"line1": "1 39086U 13009A   25356.57437766  .00000111  00000+0  56656-4 0  9999", "line2": "2 39086  98.5503 180.3764 0002963  90.1870 269.9653 14.32760302670317"}}, "geometry": {"type": "Point", "coordinates": [-168.96217375857893, -49.80768197896368]}}, {"type": "Feature", "properties": {"norad_id": 39150, "name": "GAOFEN-1", "group": "resource", "lat": -76.01693666184009, "lon": -146.58696752528306, "alt_km": 658.5446001262117, "timestamp": "2025-12-22T23:36:20.356659+00:00", "meta": {"OBJECT_NAME": "GAOFEN-1", "OBJECT_ID": "2013-018A", "EPOCH": "2025-12-22T14:18:28.033920", "MEAN_MOTION": 14.76496516, "ECCENTRICITY": 0.00184537, "INCLINATION": 97.9319, "RA_OF_ASC_NODE": 67.0813, "ARG_OF_PERICENTER": 113.0297, "MEAN_ANOMALY": 247.2862, "EPHEMERIS_TYPE": 0, "CLASSIFICATION_TYPE": "U", "NORAD_CAT_ID": 39150, "ELEMENT_SET_NO": 999, "REV_AT_EPOCH": 68218, "BSTAR": 0.00012442828, "MEAN_MOTION_DOT": 8.18e-06, "MEAN_MOTION_DDOT": 0}, "tle": {"line1": "1 39150U 13018A   25356.59615780  .00000818  00000+0  12443-3 0  9996", "line2": "2 39150  97.9319  67.0813 0018453 113.0297 247.2862 14.76496516682182"}}, "geometry": {"type": "Point", "coordinates": [-146.58696752528306, -76.01693666184009]}}, {"type": "Feature", "properties": {"norad_id": 39160, "name": "VNREDSAT 1", "group": "resource", "lat": -72.17461751383597, "lon": -153.8108603221778, "alt_km": 685.4266131741588, "timestamp": "2025-12-22T23:36:20.356670+00:00", "meta": {"OBJECT_NAME": "VNREDSAT 1", "OBJECT_ID": "2013-021B", "EPOCH": "2025-12-22T14:15:12.546144", "MEAN_MOTION": 14.64936629, "ECCENTRICITY": 0.00012104, "INCLINATION": 97.9361, "RA_OF_ASC_NODE": 51.5234, "ARG_OF_PERICENTER": 81.7234, "MEAN_ANOMALY": 278.4107, "EPHEMERIS_TYPE": 0, "CLASSIFICATION_TYPE": "U", "NORAD_CAT_ID": 39160, "ELEMENT_SET_NO": 999, "REV_AT_EPOCH": 67443, "BSTAR": 0.0001347347, "MEAN_MOTION_DOT": 6.75e-06, "MEAN_MOTION_DDOT": 0}, "tle": {"line1": "1 39160U 13021B   25356.59389521  .00000675  00000+0  13473-3 0  9997", "line2": "2 39160  97.9361  51.5234 0001210  81.7234 278.4107 14.64936629674438"}}, "geometry": {"type": "Point", "coordinates": [-153.8108603221778, -72.17461751383597]}}, {"type": "Feature", "properties": {"norad_id": 39227, "name": "ARIRANG-5 (KOMPSAT-5)", "group": "resource", "lat": -9.821117664797857, "lon": -177.5317505712196, "alt_km": 555.395087902556, "timestamp": "2025-12-22T23:36:20.356679+00:00", "meta": {"OBJECT_NAME": "ARIRANG-5 (KOMPSAT-5)", "OBJECT_ID": "2013-042A", "EPOCH": "2025-12-22T14:04:21.268992", "MEAN_MOTION": 15.04545904, "ECCENTRICITY": 0.0003419, "INCLINATION": 97.6157, "RA_OF_ASC_NODE": 180.7496, "ARG_OF_PERICENTER": 34.0672, "MEAN_ANOMALY": 326.0773, "EPHEMERIS_TYPE": 0, "CLASSIFICATION_TYPE": "U", "NORAD_CAT_ID": 39227, "ELEMENT_SET_NO": 999, "REV_AT_EPOCH": 67730, "BSTAR": 0.00012353937, "MEAN_MOTION_DOT": 1.671e-05, "MEAN_MOTION_DDOT": 0}, "tle": {"line1": "1 39227U 13042A   25356.58635728  .00001671  00000+0  12354-3 0  9990", "line2": "2 39227  97.6157 180.7496 0003419  34.0672 326.0773 15.04545904677302"}}, "geometry": {"type": "Point", "coordinates": [-177.5317505712196, -9.821117664797857]}}, {"type": "Feature", "properties": {"norad_id": 39418, "name": "SKYSAT-A", "group": "resource", "lat": -81.21499086323442, "lon": 169.52471789537154, "alt_km": 532.3317443758733, "timestamp": "2025-12-22T23:36:20.356690+00:00", "meta": {"OBJECT_NAME": "SKYSAT-A", "OBJECT_ID": "2013-066C", "EPOCH": "2025-12-22T01:47:01.235904", "MEAN_MOTION": 15.11668448, "ECCENTRICITY": 0.00213841, "INCLINATION": 97.4091, "RA_OF_ASC_NODE": 45.9992, "ARG_OF_PERICENTER": 202.7866, "MEAN_ANOMALY": 157.2418, "EPHEMERIS_TYPE": 0, "CLASSIFICATION_TYPE": "U", "NORAD_CAT_ID": 39418, "ELEMENT_SET_NO": 999, "REV_AT_EPOCH": 66171, "BSTAR": 0.00020684815, "MEAN_MOTION_DOT": 3.473e-05, "MEAN_MOTION_DDOT": 0}, "tle": {"line1": "1 39418U 13066C   25356.07431986  .00003473  00000+0  20685-3 0  9990", "line2": "2 39418  97.4091  45.9992 0021384 202.7866 157.2418 15.11668448661717"}}, "geometry": {"type": "Point", "coordinates": [169.52471789537154, -81.21499086323442]}}, {"type": "Feature", "properties": {"norad_id": 39419, "name": "DUBAISAT-2", "group": "resource", "lat": -70.57578055505726, "lon": 8.840729075148415, "alt_km": 541.3493367578485, "timestamp": "2025-12-22T23:36:20.356700+00:00", "meta": {"OBJECT_NAME": "DUBAISAT-2", "OBJECT_ID": "2013-066D", "EPOCH": "2025-12-22T14:22:18.237216", "MEAN_MOTION": 15.08442241, "ECCENTRICITY": 0.00100352, "INCLINATION": 97.4445, "RA_OF_ASC_NODE": 346.7025, "ARG_OF_PERICENTER": 283.0695, "MEAN_ANOMALY": 76.9413, "EPHEMERIS_TYPE": 0, "CLASSIFICATION_TYPE": "U", "NORAD_CAT_ID": 39419, "ELEMENT_SET_NO": 999, "REV_AT_EPOCH": 65975, "BSTAR": 0.00035100346, "MEAN_MOTION_DOT": 5.41e-05, "MEAN_MOTION_DDOT": 0}, "tle": {"line1": "1 39419U 13066D   25356.59882219  .00005410  00000+0  35100-3 0  9998", "line2": "2 39419  97.4445 346.7025 0010035 283.0695  76.9413 15.08442241659753"}}, "geometry": {"type": "Point", "coordinates": [8.840729075148415, -70.57578055505726]}}, {"type": "Feature", "properties": {"norad_id": 39574, "name": "GPM-CORE", "group": "resource", "lat": -11.565930556356214, "lon": 172.8906720343136, "alt_km": 436.8583332510925, "timestamp": "2025-12-22T23:36:20.356709+00:00", "meta": {"OBJECT_NAME": "GPM-CORE", "OBJECT_ID": "2014-009C", "EPOCH": "2025-12-22T12:47:00.642912", "MEAN_MOTION": 15.44606651, "ECCENTRICITY": 0.00092502, "INCLINATION": 64.972, "RA_OF_ASC_NODE": 179.8872, "ARG_OF_PERICENTER": 249.2133, "MEAN_ANOMALY": 110.8017, "EPHEMERIS_TYPE": 0, "CLASSIFICATION_TYPE": "U", "NORAD_CAT_ID": 39574, "ELEMENT_SET_NO": 999, "REV_AT_EPOCH": 67052, "BSTAR": 0.00017797272, "MEAN_MOTION_DOT": 8.09e-05, "MEAN_MOTION_DDOT": 0}, "tle": {"line1": "1 39574U 14009C   25356.53264633  .00008090  00000+0  17797-3 0  9995", "line2": "2 39574  64.9720 179.8872 0009250 249.2133 110.8017 15.44606651670526"}}, "geometry": {"type": "Point", "coordinates": [172.8906720343136, -11.565930556356214]}}]}